ONEWEB-0596
1 54662U 22166W   26195.63255814  .00000026  00000+0  31650-4 0  9993
2 54662  87.9234 238.5227 0002132  96.4284 263.7093 13.21824030175162
ONEWEB-0550
1 56052U 23043G   26195.63088714  .00000019  00000+0  14023-4 0  9993
2 56052  87.9236 238.5165 0001884  99.9366 260.1980 13.21826804161850
ONEWEB-0681
1 56717U 23068H   26195.63003303 -.00000014  00000+0 -65910-4 0  9997
2 56717  87.9238 238.5121 0001113  93.0688 267.0574 13.21826991154718
ONEWEB-0655
1 54677U 22166AM  26195.62919394  .00000038  00000+0  59385-4 0  9996
2 54677  87.9234 238.5270 0001894 100.8203 259.3145 13.21823745175061
ONEWEB-0602
1 54666U 22166AA  26195.62835359 -.00000016  00000+0 -70241-4 0  9994
2 54666  87.9234 238.5392 0001944 102.4219 257.7133 13.21823625175173
ONEWEB-0542
1 54646U 22166E   26195.62752879  .00000078  00000+0  15852-3 0  9999
2 54646  87.9243 238.5111 0001748  95.3064 264.8270 13.21825924175164
ONEWEB-0236
1 48797U 21045AG  26195.70859651  .00000059  00000+0  12168-3 0  9995
2 48797  87.8983 253.7226 0002132  95.2280 264.9093 13.15548551247870
ONEWEB-0630
1 56072U 23043AC  26195.70700284  .00000046  00000+0  87807-4 0  9996
2 56072  87.8993 253.7134 0002149 104.9073 255.2296 13.15548822160042
ONEWEB-0696
1 56723U 23068P   26195.70541701  .00000050  00000+0  97510-4 0  9990
2 56723  87.8987 253.7387 0002061 113.3515 246.7833 13.15549740152982
ONEWEB-0228
1 48780U 21045P   26195.70397262  .00000120  00000+0  28365-3 0  9997
2 48780  87.9003 253.7031 0002086 100.4348 259.7017 13.15549167247942
ONEWEB-0233
1 48795U 21045AE  26195.70369766  .00000067  00000+0  14514-3 0  9992
2 48795  87.8984 253.7519 0002250 105.0449 255.0931 13.15550811247911
ONEWEB-0632
1 56073U 23043AD  26195.70225881  .00000074  00000+0  16379-3 0  9998
2 56073  87.8988 253.7312 0001882  99.1536 260.9807 13.15547611160043
ONEWEB-0354
1 49217U 21083AH  26195.70917230  .00000064  00000+0  12618-3 0  9999
2 49217  87.9187 268.9550 0002196  88.6932 271.4453 13.20770565240440
ONEWEB-0384
1 49310U 21090AH  26195.70872833  .00000040  00000+0  67389-4 0  9990
2 49310  87.9189 268.9945 0001587  99.0733 261.0580 13.20814198233463
ONEWEB-0510
1 54128U 22138R   26195.70748008  .00000069  00000+0  13812-3 0  9995
2 54128  87.9182 268.9533 0002015  88.2910 271.8454 13.20769039182911
ONEWEB-0357
1 49219U 21083AK  26195.70579627  .00000017  00000+0  98053-5 0  9992
2 49219  87.9186 268.9495 0002246 102.1344 258.0041 13.20769635240444
ONEWEB-0656
1 55817U 23029X   26195.70411407  .00000068  00000+0  13513-3 0  9998
2 55817  87.9188 268.9477 0001895  87.1557 272.9793 13.20769868164783
ONEWEB-0364
1 49290U 21090M   26195.70243160  .00000019  00000+0  15740-4 0  9992
2 49290  87.9185 268.9645 0002122  99.5703 260.5670 13.20769478235074
ONEWEB-0653
1 55815U 23029V   26195.78437239  .00000124  00000+0  29916-3 0  9992
2 55815  87.8972 284.2098 0001972 100.5037 259.6315 13.14501342163022
ONEWEB-0184
1 48211U 21031B   26195.78279304  .00000179  00000+0  44796-3 0  9995
2 48211  87.8977 284.2033 0002620 115.8642 244.2758 13.14501837251916
ONEWEB-0198
1 48216U 21031G   26195.70522965  .00000208  00000+0  52741-3 0  9998
2 48216  87.8962 284.2266 0002479 101.0538 259.0870 13.14502293252104
ONEWEB-0197
1 48236U 21031AC  26195.78106027  .00000181  00000+0  45388-3 0  9994
2 48236  87.8965 284.1876 0001966  92.4129 267.7226 13.14502509251812
ONEWEB-0654
1 55816U 23029W   26195.70349576  .00000200  00000+0  50523-3 0  9994
2 55816  87.8969 284.2224 0001801  91.1034 269.0302 13.14502214163034
ONEWEB-0219
1 48223U 21031P   26195.77802165  .00000266  00000+0  68184-3 0  9998
2 48223  87.8976 284.2002 0002201  94.5179 265.6202 13.14503432252002
