STARLINK-34771
1 65078U 25167A   26195.90686109  .00027352  00000+0  93072-3 0  9991
2 65078  53.1569 153.2240 0001034 104.1630 255.9486 15.30251717 52993
STARLINK-5278
1 54164U 22141H   26195.32066996  .00000664  00000+0  30791-4 0  9993
2 54164  53.1619 152.6608 0000993  91.3963 268.7153 15.34388345205011
STARLINK-35718
1 66894U 25283S   26195.90581186  .00009601  00000+0  33583-3 0  9994
2 66894  53.1587 153.1099 0001369 108.6256 251.4894 15.30205028 35321
STARLINK-5256
1 54175U 22141U   26195.25259112  .00001490  00000+0  56646-4 0  9996
2 54175  53.1622 152.9489 0001573  97.0466 263.0715 15.33542078205008
STARLINK-35844
1 66880U 25283C   26195.90370285  .00010078  00000+0  35186-3 0  9996
2 66880  53.1569 153.1001 0001790  91.1408 268.9798 15.30206767 35329
STARLINK-5240
1 54187U 22141AG  26195.25286559  .00002082  00000+0  70583-4 0  9998
2 54187  53.1622 152.9564 0001545  94.7179 265.4001 15.35403095205000
STARLINK-5242
1 54173U 22141S   26195.11955076  .00002738  00000+0  89351-4 0  9996
2 54173  53.1625 153.5369 0001256  94.6667 265.4479 15.35401918204985
STARLINK-35983
1 66902U 25283AA  26195.31278307  .00009167  00000+0  28213-3 0  9998
2 66902  53.1575 154.3898 0001367  91.4675 268.6485 15.34398003 35258
STARLINK-30707
1 57949U 23148Q   26195.31068005  .00000554  00000+0  27540-4 0  9993
2 57949  53.1580 154.3655 0001311  70.7585 289.3560 15.34393873157838
STARLINK-31845
1 60129U 24118S   26195.91670139  .00011059  00000+0  34736-3 0  9994
2 60129  53.1605 153.5352 0001110  79.4720  30.4795 15.33524922  5814
STARLINK-35900
1 66886U 25283J   26195.30857740  .00006266  00000+0  19643-3 0  9996
2 66886  53.1573 154.3661 0000870  85.7083 274.4019 15.34400454 35254
STARLINK-1271
1 45217U 20012AR  26195.17996375  .00040824  00000+0  10755-2 0  9991
2 45217  53.1534 153.7341 0005506  44.2525 315.8919 15.38137036354560
STARLINK-36057
1 66884U 25283G   26195.26448020  .00010459  00000+0  32029-3 0  9998
2 66884  53.1583 154.8012 0001119 120.4745 239.6368 15.34395924 35241
STARLINK-31840
1 60127U 24118Q   26195.91532616 -.00001106  00000+0 -23867-4 0  9997
2 60127  53.1593 155.1733 0001298  87.6899 272.4251 15.31694131115189
STARLINK-34136
1 64112U 25110S   26195.91495130  .00010160  00000+0  33859-3 0  9996
2 64112  53.1566 154.9327 0001319  96.5216 263.5935 15.31710478 65377
STARLINK-35925
1 66887U 25283K   26195.26237703  .00008361  00000+0  25835-3 0  9991
2 66887  53.1571 154.7878 0001277 104.2312 255.8833 15.34394100 35247
STARLINK-36077
1 66903U 25283AB  26195.26027417  .00009161  00000+0  28194-3 0  9999
2 66903  53.1577 154.7712 0001353 100.7086 259.4069 15.34398910 35247
STARLINK-31828
1 59767U 24091Q   26195.91065127  .00000945  00000+0  42203-4 0  9996
2 59767  53.1595 155.1677 0001557  75.9363 284.1812 15.31704214122499
STARLINK-32151
1 60299U 24132X   26195.31377884 -.00002489  00000+0 -71972-4 0  9996
2 60299  53.1592 155.8280 0001387  71.9786 288.1366 15.30179997111344
STARLINK-34561
1 65081U 25167D   26195.31166328  .00005214  00000+0  18804-3 0  9999
2 65081  53.1574 155.9050 0001066  92.5801 267.5322 15.30197387 54156
STARLINK-35749
1 66879U 25283B   26195.17995997  .00007357  00000+0  26022-3 0  9991
2 66879  53.1573 156.4013 0000877  82.1886 277.9214 15.30204193 35218
STARLINK-35791
1 66896U 25283U   26195.30742667  .00012314  00000+0  42721-3 0  9992
2 66896  53.1572 155.7730 0001047  69.2479 290.8634 15.30196799 35232
STARLINK-35860
1 66881U 25283D   26195.30424526 -.00007726  00000+0 -24898-3 0  9995
2 66881  53.1584 155.7528 0001035 102.1014 258.0103 15.30201917 35239
STARLINK-3669
1 51971U 22025R   26195.17322650 -.00000058  00000+0  98885-5 0  9999
2 51971  53.1594 155.9827 0001261 110.7144 249.3993 15.31708425240390
STARLINK-33970
1 64106U 25110L   26195.30709512  .00020535  00000+0  61799-3 0  9995
2 64106  53.1577 156.8371 0001315  66.3041 293.8100 15.34361464 65290
STARLINK-36033
1 66893U 25283R   26195.23627626 -.00892307  00000+0 -34424-1 0  9997
2 66893  53.1613 156.7496 0012246  88.4603 271.7800 15.28517972 35218
STARLINK-36075
1 66905U 25283AD  26195.16952095  .00009258  00000+0  32436-3 0  9990
2 66905  53.1591 157.0421 0001127  90.6056 269.5074 15.30195163 35206
STARLINK-31785
1 60131U 24118U   26195.36529808  .00003562  00000+0  12649-3 0  9991
2 60131  53.1598 157.4285 0002312  25.9131 334.1986 15.31705757115108
STARLINK-2102
1 47382U 21005AK  26195.29536604 -.00003117  00000+0 -88682-4 0  9999
2 47382  53.1585 157.4642 0002165  86.9637 273.1612 15.31707284302932
STARLINK-3562
1 51861U 22022K   26196.00002315  .00010255  00000+0  53718-3 0  9993
2 51861  53.1598 157.1942 0002501  99.4828 187.3428 15.16365280  5758
STARLINK-33964
1 64118U 25110Y   26195.34670053  .00008023  00000+0  26997-3 0  9998
2 64118  53.1572 157.7845 0001345  94.5991 265.5164 15.31705056 65285
STARLINK-34072
1 64101U 25110F   26195.28111836  .00012268  00000+0  40632-3 0  9990
2 64101  53.1573 158.0945 0001081 101.5809 258.5314 15.31711073 65271
STARLINK-33912
1 64107U 25110M   26195.27678228  .00008934  00000+0  29925-3 0  9995
2 64107  53.1559 158.0606 0001221 112.2147 247.8984 15.31708292 65278
STARLINK-33839
1 64113U 25110T   26195.33737168  .00004815  00000+0  16690-3 0  9997
2 64113  53.1561 157.7239 0001239 120.9753 239.1371 15.31688228 65285
STARLINK-34156
1 64108U 25110N   26195.27179197  .00009294  00000+0  31065-3 0  9995
2 64108  53.1569 158.0310 0001192  93.9991 266.1147 15.31724822 65273
STARLINK-34124
1 64109U 25110P   26195.33236390  .00009584  00000+0  32011-3 0  9996
2 64109  53.1570 157.6990 0001261 100.4850 259.6294 15.31709137 65283
STARLINK-34665
1 65089U 25167M   26195.25331848  .00012956  00000+0  44842-3 0  9993
2 65089  53.1572 159.0417 0001077  95.1303 264.9821 15.30227676 52857
STARLINK-3508
1 51862U 22022L   26195.57223005  .00175474  00000+0  10284-1 0  9990
2 51862  53.1607 159.2409 0002013  83.0627 277.0594 15.10535942242320
STARLINK-34673
1 65090U 25167N   26195.18485098  .00027829  00000+0  94889-3 0  9995
2 65090  53.1573 159.3279 0001068  46.4439 313.6650 15.30176512 52841
STARLINK-34640
1 65092U 25167Q   26195.31124460  .00012235  00000+0  42459-3 0  9996
2 65092  53.1588 158.6920 0001237  73.1626 286.9510 15.30194875 52868
STARLINK-34179
1 64103U 25110H   26195.30600388  .00025415  00000+0  86659-3 0  9997
2 64103  53.1609 158.9535 0001238  66.6299 293.4832 15.30226037 65267
STARLINK-34189
1 64121U 25110AB  26195.30390227  .00010109  00000+0  35303-3 0  9999
2 64121  53.1597 158.9334 0001002  73.9733 286.1378 15.30192442 65269
STARLINK-5269
1 54161U 22141E   26195.91670139  .00051623  00000+0  20117-2 0  9995
2 54161  53.1609 162.2220 0001332  95.2389 181.7482 15.25485496  5794
STARLINK-37320
1 68711U 26081N   26195.92852194  .00009512  00000+0  29229-3 0  9996
2 68711  53.1579 161.6656 0001410  94.1272 265.9892 15.34399473 14247
STARLINK-37318
1 68712U 26081P   26195.92641191  .00016791  00000+0  50686-3 0  9998
2 68712  53.1558 161.6493 0002633 120.4837 239.6426 15.34405983 14247
STARLINK-37305
1 68713U 26081Q   26195.92431050  .00011747  00000+0  35818-3 0  9996
2 68713  53.1574 161.6291 0001901 117.2133 242.9063 15.34408043 14246
STARLINK-37225
1 68714U 26081R   26195.92220870  .00012242  00000+0  37288-3 0  9997
2 68714  53.1575 161.6301 0001263 105.7509 254.3633 15.34398921 14243
STARLINK-4186
1 52880U 22062BC  26195.33331621 -.00000030  00000+0  10253-4 0  9998
2 52880  53.1613 162.1505 0001592  77.6569 282.4612 15.34388445225235
STARLINK-37334
1 68700U 26081B   26195.43057875  .00004219  00000+0  13595-3 0  9991
2 68700  53.1574 164.2476 0001451  81.3745 278.7422 15.34395135 14160
STARLINK-36275
1 68702U 26081D   26195.42637193  .00009412  00000+0  28936-3 0  9994
2 68702  53.1585 164.2344 0001144  59.1483 300.9633 15.34398485 14162
STARLINK-36271
1 68703U 26081E   26195.42426605  .00009723  00000+0  29857-3 0  9997
2 68703  53.1563 164.2085 0001307  91.0150 269.1003 15.34394341 14162
STARLINK-35369
1 68705U 26081G   26195.35492208  .00010775  00000+0  32957-3 0  9997
2 68705  53.1561 164.4879 0001079  90.3811 269.7315 15.34399917 14152
STARLINK-37112
1 68707U 26081J   26195.35281835  .00008490  00000+0  26214-3 0  9991
2 68707  53.1569 164.4859 0001115  88.9247 271.1884 15.34398065 14158
STARLINK-4181
1 52882U 22062BE  26195.34309471  .00003616  00000+0  22603-3 0  9992
2 52882  53.1594 164.3958 0001211  63.9917 296.1200 15.11867978225204
STARLINK-3568
1 51856U 22022E   26196.00002315 -.00008456  00000+0 -26087-3 0  9998
2 51856  53.1601 165.1887 0001474  93.9683 152.5446 15.31716872  5758
STARLINK-32007
1 60094U 24117D   26195.95421377 -.00000351  00000+0  75967-6 0  9994
2 60094  53.1587 165.1162 0001190  94.8767 265.2372 15.34390698116388
STARLINK-37358
1 68699U 26081A   26195.30241789  .00006701  00000+0  20940-3 0  9993
2 68699  53.1559 164.8704 0000973  80.1722 279.9390 15.34381939 14142
STARLINK-5446
1 54789U 22175AH  26195.35509790 -.00000439  00000+0 -94784-5 0  9995
2 54789  53.1605 165.0045 0001257  76.1846 283.9285 15.08838869199465
STARLINK-3538
1 51996U 22025AS  26195.95193298  .00001031  00000+0  42670-4 0  9997
2 51996  53.1607 165.2184 0001507  78.8962 281.2210 15.33548664240168
STARLINK-3671
1 51972U 22025S   26195.95066421 -.00000036  00000+0  10613-4 0  9995
2 51972  53.1617 165.2899 0001274  93.7272 266.3875 15.31700078240323
STARLINK-32003
1 60097U 24117G   26195.93325988  .00000075  00000+0  13353-4 0  9997
2 60097  53.1617 165.6945 0001103  82.3992 277.7136 15.34389080116373
STARLINK-2106
1 47386U 21005AP  26195.73628209  .00006593  00000+0  22421-3 0  9992
2 47386  53.1609 166.3191 0001479  85.3725 274.7445 15.31675436302843
STARLINK-3699
1 51966U 22025L   26195.73554357  .00009396  00000+0  31457-3 0  9999
2 51966  53.1608 165.8583 0001420  73.6088 286.5069 15.31658913240292
STARLINK-31239
1 60093U 24117C   26195.92905398  .00000901  00000+0  37787-4 0  9996
2 60093  53.1587 165.6724 0001134  69.9884 290.1241 15.34402633116371
STARLINK-5297
1 54158U 22141B   26195.19689724 -.00000318  00000+0 -19092-5 0  9991
2 54158  53.1594 166.0839 0001260  77.8365 282.2767 15.08834649204817
STARLINK-31441
1 60091U 24117A   26195.92689883 -.00032495  00000+0 -95057-3 0  9990
2 60091  53.1608 165.6570 0000840  31.0255 329.0797 15.34537211116376
STARLINK-32009
1 60104U 24117P   26195.33651147  .00000105  00000+0  14265-4 0  9996
2 60104  53.1613 168.3425 0001558  70.3575 289.7596 15.34390506116287
STARLINK-1216
1 45185U 20012H   26195.33805724  .00039796  00000+0  10473-2 0  9993
2 45185  53.1533 168.2435 0003910  27.1399 332.9809 15.38189134354322
STARLINK-3679
1 51973U 22025T   26195.33471102  .00000182  00000+0  17625-4 0  9995
2 51973  53.1608 167.7000 0001289  94.6188 265.4961 15.31703837240239
STARLINK-1225
1 45187U 20012K   26195.40151969  .00035028  00000+0  92618-3 0  9994
2 45187  53.1539 168.4066 0004963  32.1964 327.9343 15.38099699354373
STARLINK-32035
1 60107U 24117S   26195.39954914  .00000222  00000+0  17715-4 0  9996
2 60107  53.1597 168.0493 0001056  94.0053 266.1070 15.34388329116297
STARLINK-3660
1 51977U 22025X   26195.39718692  .00000787  00000+0  39588-4 0  9996
2 51977  53.1616 167.9139 0001316  77.9787 282.1361 15.29356889240493
STARLINK-4010
1 52862U 22062AJ  26195.95948481  .00000341  00000+0  20676-4 0  9998
2 52862  53.1621 169.4281 0001079  97.5256 262.5870 15.35398018225186
STARLINK-35428
1 66115U 25237B   26195.95761088  .00008886  00000+0  31197-3 0  9998
2 66115  53.1564 168.6343 0001288  94.6577 265.4571 15.30178778 42084
STARLINK-32123
1 60284U 24132G   26195.95654440 -.00000893  00000+0 -18045-4 0  9995
2 60284  53.1595 168.6545 0001123  91.0748 269.0382 15.30191277111224
STARLINK-34852
1 66135U 25237X   26195.95547470  .00013098  00000+0  45389-3 0  9996
2 66135  53.1578 168.6129 0001212  97.2197 262.8941 15.30176740 42053
STARLINK-35632
1 66129U 25237R   26195.95443215  .00008060  00000+0  28411-3 0  9991
2 66129  53.1572 168.6126 0001087  77.0398 283.0724 15.30183886 42093
STARLINK-35572
1 66117U 25237D   26195.95126331  .00009233  00000+0  32348-3 0  9992
2 66117  53.1583 168.5921 0001194  99.3435 260.7701 15.30198775 42092
STARLINK-35630
1 66131U 25237T   26195.29710845  .00009745  00000+0  29919-3 0  9992
2 66131  53.1573 170.2003 0001139 105.4139 254.6990 15.34396506 42017
STARLINK-35553
1 66120U 25237G   26195.29500483  .00009639  00000+0  29606-3 0  9990
2 66120  53.1571 170.1914 0001403 100.2829 259.8332 15.34397014 42018
STARLINK-34347
1 64226U 25117Z   26195.35807919  .00007812  00000+0  24213-3 0  9993
2 64226  53.1572 170.2144 0000973  67.5007 292.6099 15.34393990 63932
STARLINK-3668
1 52002U 22025AY  26195.41170469  .00000339  00000+0  39379-4 0  9994
2 52002  53.1598 170.0219 0001079  75.8796 284.2315 15.08830017240050
STARLINK-34328
1 64220U 25117T   26195.42111532  .00011328  00000+0  34564-3 0  9991
2 64220  53.1570 169.8997 0001273  95.3969 264.7179 15.34422472 63942
STARLINK-34311
1 64206U 25117D   26195.41902486  .00012129  00000+0  36990-3 0  9995
2 64206  53.1566 169.8922 0001244  80.9651 279.1492 15.34367031 63975
STARLINK-34304
1 64224U 25117X   26195.31282878  .00008423  00000+0  29623-3 0  9997
2 64224  53.1558 171.3523 0001472  83.0654 277.0514 15.30196241 63949
STARLINK-4112
1 52861U 22062AH  26195.31288397  .00000325  00000+0  22236-4 0  9996
2 52861  53.1612 171.2573 0000966  76.3986 283.7123 15.31697090225105
STARLINK-34324
1 64207U 25117E   26195.37709014  .00004930  00000+0  17845-3 0  9992
2 64207  53.1580 171.0467 0001209  92.9772 267.1367 15.30199168 62897
STARLINK-34296
1 64216U 25117P   26195.37497800  .00011374  00000+0  39549-3 0  9994
2 64216  53.1568 171.0292 0001078 103.0688 257.0433 15.30204935 63952
STARLINK-35631
1 66121U 25237H   26195.37398685  .00007289  00000+0  25800-3 0  9990
2 66121  53.1571 171.3884 0001425  97.1660 262.9503 15.30198134 42001
STARLINK-35612
1 66128U 25237Q   26195.37291351  .00013721  00000+0  47474-3 0  9998
2 66128  53.1570 171.3838 0001129  80.3855 279.7273 15.30185184 42008
STARLINK-5415
1 54796U 22175AQ  26195.91670139  .00110602  00000+0  35250-2 0  9993
2 54796  53.1593 175.7884 0000629  42.6701 330.6963 15.31685548  5793
STARLINK-5450
1 54778U 22175W   26195.91670139  .00038117  00000+0  11341-2 0  9998
2 54778  53.1595 175.7701 0001357  77.5235 306.6426 15.34384123  5808
STARLINK-5449
1 54780U 22175Y   26195.91670139  .00040037  00000+0  11532-2 0  9997
2 54780  53.1593 175.7521 0001503  97.6274 292.5415 15.35382998  5493
STARLINK-5436
1 54795U 22175AP  26195.38858268 -.00000488  00000+0 -33092-5 0  9991
2 54795  53.1620 176.1049 0001240  98.5191 261.5952 15.34382890199313
STARLINK-5445
1 54790U 22175AJ  26195.91670139  .00077479  00000+0  22192-2 0  9992
2 54790  53.1591 175.7358 0001304 100.7541 299.1048 15.35260062  5797
STARLINK-5447
1 54779U 22175X   26195.91670139  .00038028  00000+0  10963-2 0  9999
2 54779  53.1594 175.7373 0001485 104.9154 295.8978 15.35379054  5809
STARLINK-36929
1 68067U 26041AD  26195.47740924  .00008967  00000+0  27613-3 0  9991
2 68067  53.1565 177.8764 0000884  75.8548 284.2553 15.34408021 20842
STARLINK-33658
1 63384U 25063X   26195.91670139  .00040839  00000+0  12132-2 0  9993
2 63384  53.1569 177.7483 0001518  82.8617 193.7691 15.34401214  5870
STARLINK-36952
1 68062U 26041Y   26195.47531804  .00014752  00000+0  44679-3 0  9991
2 68062  53.1546 177.8601 0001016 126.3936 233.7161 15.34405217 20845
STARLINK-33657
1 63370U 25063H   26195.86455401  .00009198  00000+0  28304-3 0  9997
2 63370  53.1566 177.9779 0001335  74.0986 286.0164 15.34398817 74232
STARLINK-1422
1 45696U 20035AR  26195.34158808  .00030914  00000+0  77048-3 0  9995
2 45696  53.1537 178.2891 0001963  78.7175 281.4051 15.39981931338404
STARLINK-36954
1 68057U 26041T   26195.33661383  .00008058  00000+0  24943-3 0  9990
2 68057  53.1570 178.4061 0001376  83.2433 276.8726 15.34393029 20825
STARLINK-33629
1 63388U 25063AB  26195.33505225  .00008648  00000+0  26665-3 0  9995
2 63388  53.1569 180.3574 0001055  97.7771 262.3351 15.34416693 74203
STARLINK-2112
1 47391U 21005AU  26195.32400522  .00010352  00000+0  59458-3 0  9997
2 47391  53.0647 179.9016 0002700  26.5975 333.5155 15.13060745302593
STARLINK-36925
1 68042U 26041C   26195.39810331  .00009752  00000+0  29944-3 0  9997
2 68042  53.1554 180.2198 0000932  70.3215 289.7888 15.34394192 20807
STARLINK-36836
1 68065U 26041AB  26195.39599642  .00012811  00000+0  38971-3 0  9991
2 68065  53.1553 180.1895 0000969  96.4398 263.6715 15.34394836 20800
STARLINK-33626
1 63369U 25063G   26195.32873674  .00004796  00000+0  15301-3 0  9994
2 63369  53.1569 180.3232 0001658  81.2670 278.8520 15.34398605 74154
STARLINK-35911
1 68051U 26041M   26195.32454814  .00013671  00000+0  41509-3 0  9996
2 68051  53.1570 180.4588 0001155 102.9941 257.1191 15.34392899 20792
STARLINK-33643
1 63381U 25063U   26195.91670139  .00754396  00000+0  21311-1 0  9998
2 63381  53.1587 181.3266 0003025  53.9797 209.5210 15.33583032  5860
STARLINK-32113
1 60282U 24132E   26195.93282178 -.00000885  00000+0 -17756-4 0  9995
2 60282  53.1584 181.2745 0001330  72.1401 287.9745 15.30193251111045
STARLINK-33653
1 63380U 25063T   26195.93116393  .00016108  00000+0  52932-3 0  9993
2 63380  53.1548 181.2348 0002719  70.5080 289.6215 15.31722476 74196
STARLINK-33634
1 63377U 25063Q   26195.91670139  .00041684  00000+0  12727-2 0  9994
2 63377  53.1588 181.2897 0001176  73.0421 209.8221 15.33523845  5756
STARLINK-32154
1 60276U 24131X   26195.92857927 -.00000497  00000+0 -46516-5 0  9992
2 60276  53.1594 181.1179 0001425  87.5379 272.5785 15.30195458111201
STARLINK-32167
1 60268U 24131P   26195.92647202 -.00000476  00000+0 -39661-5 0  9996
2 60268  53.1595 181.1225 0000855  77.3145 282.7951 15.30192000111195
STARLINK-32144
1 60269U 24131Q   26195.48830624 -.00000575  00000+0 -67623-5 0  9999
2 60269  53.1592 182.6428 0000855  53.5854 306.5226 15.31696993111198
STARLINK-31526
1 59016U 24036U   26195.48802639 -.00000515  00000+0 -48368-5 0  9995
2 59016  53.1582 183.0518 0001074  67.0717 293.0398 15.31697342135108
STARLINK-4086
1 52833U 22062D   26195.91670139  .00063570  00000+0  34203-2 0  9996
2 52833  53.1589 182.6545 0002089  81.3024 129.8054 15.14276307  5798
STARLINK-32211
1 60270U 24131R   26195.48682750  .00000215  00000+0  17504-4 0  9997
2 60270  53.1607 183.3581 0001292  74.6885 285.4261 15.34385419111138
STARLINK-32158
1 60267U 24131N   26195.48404210 -.00000154  00000+0  69403-5 0  9995
2 60267  53.1593 183.3201 0001263  86.1968 273.9177 15.30188349111031
STARLINK-33656
1 63389U 25063AC  26195.35315045  .00004478  00000+0  15593-3 0  9992
2 63389  53.1593 183.3125 0001241  72.9378 287.1759 15.31711859 74162
STARLINK-5215
1 54759U 22175B   26195.91670139  .00045947  00000+0  14837-2 0  9999
2 54759  53.1607 186.4148 0002012 109.4904 291.8858 15.31689256  5640
STARLINK-37232
1 69515U 26133H   26195.97434413  .00012596  00000+0  23452-3 0  9990
2 69515  53.1596 185.6389 0001090 202.9189 157.1771 15.49266408  5120
STARLINK-1609
1 47621U 21012B   26195.39365612  .00053619  00000+0  93659-3 0  9992
2 47621  53.1534 186.2344 0005384  24.1416 335.9845 15.50160984299634
STARLINK-36536
1 69510U 26133C   26195.91670139  .00049792  00000+0  14293-2 0  9996
2 69510  53.1601 185.8962 0001348  85.4891 320.0041 15.35391345  6116
STARLINK-37888
1 69535U 26133AD  26195.97336568  .00014488  00000+0  43915-3 0  9992
2 69535  53.1600 185.5976 0001503  73.0792 287.0376 15.34396436  6387
STARLINK-37407
1 69534U 26133AC  26195.97022595  .00020646  00000+0  63741-3 0  9995
2 69534  53.1599 185.5763 0001271 107.4746 252.6395 15.33546060  6388
STARLINK-2033
1 47650U 21012AG  26192.30173048  .00143973  00000+0  30024-2 0  9991
2 47650  53.1483 188.6999 0004198  41.4356 318.6969 15.44565355299301
STARLINK-5214
1 54762U 22175E   26195.91670139  .00047386  00000+0  15300-2 0  9998
2 54762  53.1603 189.4631 0001353  90.8241 229.3516 15.31680703  5762
STARLINK-37933
1 69532U 26133AA  26195.20517897  .00005548  00000+0  16983-3 0  9993
2 69532  53.1567 189.3469 0001073  82.3900 277.7225 15.35399349  6275
STARLINK-37429
1 69523U 26133R   26195.20841750  .00037906  00000+0  68584-3 0  9998
2 69523  53.1588 189.3901 0001058  93.6865 266.4265 15.49328007  6274
STARLINK-37890
1 69533U 26133AB  26195.26528337  .00009189  00000+0  28283-3 0  9992
2 69533  53.1585 189.0070 0001161  84.0008 276.1127 15.34392022  6282
STARLINK-37889
1 69536U 26133AE  26195.26912350  .00017534  00000+0  32241-3 0  9999
2 69536  53.1576 189.0611 0001164  91.6098 268.5044 15.49326856  6283
STARLINK-5468
1 54777U 22175V   26195.91670139  .00076478  00000+0  37420-2 0  9995
2 54777  53.1598 192.3568 0001882  90.6770 175.8259 15.17531634  5799
STARLINK-35606
1 66171U 25240AB  26195.28257007  .00011535  00000+0  35186-3 0  9998
2 66171  53.1564 192.4329 0000879  82.5260 277.5843 15.34413016 41407
STARLINK-5429
1 54801U 22175AV  26195.47652609  .00000493  00000+0  27639-4 0  9993
2 54801  53.1584 191.6039 0000978  69.3262 290.7844 15.31709520199104
STARLINK-35624
1 66166U 25240W   26195.28045649  .00008732  00000+0  26931-3 0  9992
2 66166  53.1560 192.4201 0001104  82.9454 277.1674 15.34394747 41404
STARLINK-31406
1 59017U 24036V   26195.93029656 -.00001829  00000+0 -43015-4 0  9998
2 59017  53.1585 191.5473 0001474  87.4610 272.6561 15.34391987135023
STARLINK-5470
1 54776U 22175U   26195.92801424  .00170718  00000+0  10043-1 0  9991
2 54776  53.1618 192.2423 0000626 108.2991 251.8069 15.10424715199136
STARLINK-32279
1 61003U 24158P   26195.95392204  .00000258  00000+0  18768-4 0  9995
2 61003  53.1596 193.1529 0001387  94.0903 266.0258 15.34389430105156
STARLINK-2096
1 47376U 21005AD  26195.29922439 -.00000012  00000+0  11365-4 0  9991
2 47376  53.1573 193.4388 0001161  49.4215 310.6887 15.31698840302422
STARLINK-5453
1 54773U 22175R   26195.91670139  .00070334  00000+0  38097-2 0  9997
2 54773  53.1598 192.5376 0001997  38.0636 134.5339 15.13987729  5649
STARLINK-35575
1 66165U 25240V   26195.23426081  .00007702  00000+0  23888-3 0  9993
2 66165  53.1574 192.8469 0001091  83.3966 276.7160 15.34395940 41395
STARLINK-35081
1 66148U 25240C   26195.29729195  .00005390  00000+0  17062-3 0  9990
2 66148  53.1559 192.5308 0001265  94.6988 265.4159 15.34386361 41402
STARLINK-3871
1 52496U 22049AX  26195.91670139  .00070696  00000+0  35486-2 0  9997
2 52496  53.1596 192.5773 0002039  72.7497 123.7829 15.16677168  5792
STARLINK-32413
1 61590U 24187S   26195.47229321 -.00000455  00000+0 -23311-5 0  9996
2 61590  53.1584 194.0772 0000969  87.3042 272.8071 15.34387208 98529
STARLINK-35638
1 66169U 25240Z   26195.40499650  .00012510  00000+0  38090-3 0  9992
2 66169  53.1570 193.9043 0001036  57.2616 302.8486 15.34388569 41397
STARLINK-35633
1 66162U 25240S   26195.27261674  .00002943  00000+0  98221-4 0  9995
2 66162  53.1586 194.4995 0001380  56.4334 303.6800 15.34390106 41376
STARLINK-33948
1 66147U 25240B   26195.39868221  .00014081  00000+0  42707-3 0  9995
2 66147  53.1593 193.8779 0000673  94.0049 266.1030 15.34402007 41445
STARLINK-32325
1 61588U 24187Q   26195.45967026  .00000382  00000+0  22435-4 0  9994
2 61588  53.1587 194.0094 0001088  60.9858 299.1253 15.34387845 98522
STARLINK-35621
1 66156U 25240L   26195.39237301  .00015408  00000+0  46634-3 0  9991
2 66156  53.1581 193.8384 0001353  68.4080 291.7066 15.34390825 41391
STARLINK-31979
1 59964U 24107V   26195.47066023  .00000237  00000+0  18158-4 0  9996
2 59964  53.1603 195.4779 0001363  78.9007 281.2149 15.34389702119177
STARLINK-31989
1 59959U 24107Q   26195.46855667  .00001784  00000+0  63932-4 0  9997
2 59959  53.1595 195.4704 0001247  87.3700 272.7445 15.34394699119225
STARLINK-5220
1 54760U 22175C   26195.52166688  .00000063  00000+0  22058-4 0  9993
2 54760  53.1602 194.6776 0001220  66.4298 293.6822 15.08835261199067
STARLINK-31980
1 59962U 24107T   26195.46434801 -.00000314  00000+0  18393-5 0  9995
2 59962  53.1586 195.4387 0001160 103.0968 257.0164 15.34386292119226
STARLINK-2627
1 48687U 21044BB  26195.39775035 -.00002982  00000+0 -84367-4 0  9990
2 48687  53.1592 195.4254 0001327  52.3602 307.7520 15.31697637283916
STARLINK-5191
1 54763U 22175F   26195.51797889 -.00000923  00000+0 -39921-4 0  9992
2 54763  53.1598 194.6559 0001214  77.2299 282.8828 15.08831599199063
