STARLINK-2190
1 48564U 21041M   26195.53860130  .00001198  00000+0  50369-4 0  9999
2 48564  53.1586 256.4957 0001102  84.7732 275.3395 15.31703121284710
STARLINK-32377
1 61888U 24204Q   26195.47425995 -.00001173  00000+0 -23592-4 0  9999
2 61888  53.1573 255.7164 0001602  64.3099 295.8069 15.34386217 94537
STARLINK-37248
1 68527U 26068V   26195.40699149  .00004606  00000+0  14742-3 0  9991
2 68527  53.1569 255.8071 0001214  87.9871 272.1271 15.34391891 16413
STARLINK-3795
1 52264U 22041D   26195.47008819  .00000828  00000+0  35638-4 0  9994
2 52264  53.1604 255.9917 0001193  85.1094 275.0045 15.34390227233556
STARLINK-3740
1 52265U 22041E   26196.00002315  .00116426  00000+0  37201-2 0  9998
2 52265  53.1590 255.6456 0001490  42.9327  13.0926 15.31572826  5803
STARLINK-32489
1 61893U 24204V   26195.46794784 -.00000991  00000+0 -18226-4 0  9994
2 61893  53.1586 255.6756 0000618  77.0325 283.0747 15.34389476 94534
STARLINK-36294
1 68531U 26068Z   26195.47537484  .00003519  00000+0  11524-3 0  9993
2 68531  53.1576 259.8426 0000947  96.8997 263.2113 15.34394905 16363
STARLINK-3784
1 52275U 22041Q   26195.46598311 -.00000607  00000+0 -20062-4 0  9998
2 52275  53.1586 259.7389 0000895  83.8801 276.2292 15.08830618233507
STARLINK-32859
1 62861U 25022H   26195.47327185  .00009177  00000+0  28244-3 0  9990
2 62861  53.1572 259.8399 0000961  95.4826 264.6286 15.34394734 81324
STARLINK-32276
1 60944U 24155W   26195.47118586 -.00000010  00000+0  10842-4 0  9993
2 60944  53.1595 259.9334 0000988  86.6100 273.5015 15.34386901105812
STARLINK-3739
1 52266U 22041F   26195.39634807  .00004497  00000+0  29010-3 0  9991
2 52266  53.2135 260.0742 0001964  27.3330 332.7766 15.10149996233491
STARLINK-36285
1 68530U 26068Y   26195.46906374  .00004083  00000+0  13195-3 0  9992
2 68530  53.1577 259.8089 0001051  89.4986 270.6137 15.34391727 16368
STARLINK-3867
1 52587U 22051BD  26195.67207514  .00000003  00000+0  11856-4 0  9999
2 52587  53.1598 265.6390 0001094  76.9471 283.1653 15.31702343230809
STARLINK-33638
1 63436U 25069D   26195.54163250  .00125956  00000+0  36896-2 0  9994
2 63436  53.1589 265.6236 0001010  69.8422 290.2689 15.34290934 72935
STARLINK-32574
1 61954U 24209R   26195.47321199  .00018644  00000+0  54423-3 0  9994
2 61954  53.1592 265.9880 0001040 101.9413 258.1706 15.35389215 94435
STARLINK-32583
1 61955U 24209S   26195.47227647  .00002448  00000+0  83578-4 0  9997
2 61955  53.1585 265.9782 0000720  94.3360 265.7725 15.34388448 94429
STARLINK-33659
1 63445U 25069N   26195.46971193  .00011696  00000+0  36612-3 0  9990
2 63445  53.1582 265.8817 0001032  89.7477 270.3644 15.33573048 72872
STARLINK-32566
1 61958U 24209V   26195.46807197  .00010128  00000+0  31051-3 0  9995
2 61958  53.1581 265.9596 0000898  87.2171 272.8934 15.34394955 94430
STARLINK-33796
1 63515U 25071Y   26195.47369616  .00005880  00000+0  21053-3 0  9994
2 63515  53.1596 270.8029 0000520  31.6908 328.4124 15.30194406 72188
STARLINK-35936
1 66620U 25271D   26195.47274877  .00021765  00000+0  74448-3 0  9996
2 66620  53.1589 271.3314 0001413  83.5070 276.6092 15.30215421 36977
STARLINK-33792
1 63506U 25071P   26195.47159265  .00001587  00000+0  65695-4 0  9992
2 63506  53.1596 270.8296 0001118  92.7760 267.3369 15.30193520 72135
STARLINK-35902
1 66626U 25271K   26195.47061744  .00012595  00000+0  43664-3 0  9996
2 66626  53.1602 271.3212 0001485  82.9025 277.2145 15.30200668 36971
STARLINK-35972
1 66638U 25271X   26195.46954116  .00019587  00000+0  67083-3 0  9991
2 66638  53.1607 271.3099 0001656  44.1104 316.0029 15.30242651 36971
STARLINK-32351
1 61529U 24183W   26195.46841262  .00002039  00000+0  80956-4 0  9992
2 61529  53.1604 270.6898 0001484  58.7972 301.3174 15.30200671 99102
