STARLINK-34772
1 65020U 25161F   26195.91617785  .00018335  00000+0  55289-3 0  9996
2 65020  53.1583  61.4920 0001001  97.8140 262.2977 15.34375160 54945
STARLINK-34773
1 65024U 25161K   26195.91407763  .00006528  00000+0  20419-3 0  9991
2 65024  53.1587  61.4757 0001245  85.5330 274.5815 15.34397410 54822
STARLINK-31385
1 58985U 24031W   26195.91194803 -.00001020  00000+0 -19033-4 0  9997
2 58985  53.1607  61.3120 0001523 102.7809 257.3364 15.34407779136052
STARLINK-4712
1 53798U 22111AB  26195.91038998  .00134764  00000+0  45073-2 0  9994
2 53798  53.1599  60.5386 0001637 108.2053 251.9126 15.30005663212910
STARLINK-34286
1 65035U 25161W   26195.90986839  .00008497  00000+0  26229-3 0  9990
2 65035  53.1587  61.4496 0001129  85.9681 274.1450 15.34402780 53735
STARLINK-31335
1 58969U 24031E   26195.90774719  .00000492  00000+0  25695-4 0  9999
2 58969  53.1607  61.3307 0001335  77.5340 282.5812 15.34400535136074
STARLINK-35464
1 65881U 25223AD  26195.86783708  .00004043  00000+0  13075-3 0  9991
2 65881  53.1592  61.5656 0001489  89.3467 270.7707 15.34396220 43702
STARLINK-35459
1 65856U 25223C   26195.86573320  .00005020  00000+0  15962-3 0  9993
2 65856  53.1592  61.5631 0001354  91.8485 268.2673 15.34395128 43706
STARLINK-2505
1 48411U 21038BL  26195.86410245 -.00001673  00000+0 -42155-4 0  9994
2 48411  53.1588  62.1306 0001273 107.6426 252.4714 15.31702035287466
STARLINK-34438
1 65876U 25223Y   26195.86161180  .00007325  00000+0  22768-3 0  9994
2 65876  53.1591  62.2399 0001374  61.8595 298.2546 15.34403782 43693
STARLINK-34807
1 65028U 25161P   26195.92461381  .00023888  00000+0  71544-3 0  9995
2 65028  53.1578  61.5392 0000811  51.0200 309.0874 15.34419547 54830
STARLINK-35386
1 65862U 25223J   26195.92254271  .00019879  00000+0  59794-3 0  9996
2 65862  53.1587  61.9132 0001263  99.5658 260.5488 15.34398418 43707
STARLINK-31264
1 58845U 24017V   26195.90184113  .00001511  00000+0  63099-4 0  9992
2 58845  53.1591  63.0143 0001064 103.0706 257.0414 15.30214623138250
STARLINK-34655
1 65027U 25161N   26195.91670139 -.00012649  00000+0 -36394-3 0  9995
2 65027  53.1605  63.4570 0001967  77.7592   3.4695 15.34389703  5822
STARLINK-35456
1 65867U 25223P   26195.89976274  .00010667  00000+0  37148-3 0  9996
2 65867  53.1596  63.1821 0001161 104.6109 255.5021 15.30225028 43683
STARLINK-34656
1 65032U 25161T   26195.91670139 -.00009108  00000+0 -26596-3 0  9990
2 65032  53.1602  63.4289 0000967  73.6709  22.7214 15.33545110  5822
STARLINK-35199
1 65858U 25223E   26195.89870856  .00006007  00000+0  21480-3 0  9990
2 65858  53.1597  63.1810 0001237  94.0734 266.0408 15.30198004 43681
STARLINK-34776
1 65037U 25161Y   26195.89664638  .00006660  00000+0  23676-3 0  9993
2 65037  53.1602  63.4914 0001121  93.8642 266.2487 15.30202946 53706
STARLINK-34614
1 65030U 25161R   26195.91036639  .00009481  00000+0  33176-3 0  9993
2 65030  53.1587  63.5772 0001112  91.7237 268.3891 15.30206039 54802
STARLINK-34623
1 65018U 25161D   26195.91670139 -.00005030  00000+0 -14165-3 0  9993
2 65018  53.1598  63.5220 0001299  73.4957 337.7140 15.33559223  5870
STARLINK-34778
1 65021U 25161G   26195.90720305  .00006145  00000+0  21943-3 0  9995
2 65021  53.1606  63.5659 0001477 106.6068 253.5096 15.30198250 54796
STARLINK-34677
1 65031U 25161S   26195.90614577  .00007723  00000+0  27258-3 0  9997
2 65031  53.1596  63.5522 0001198  89.0242 271.0896 15.30201557 53700
STARLINK-34789
1 65022U 25161H   26195.90297326  .00021516  00000+0  73526-3 0  9991
2 65022  53.1606  63.5330 0001055  86.6856 273.4265 15.30253683 54798
STARLINK-34770
1 65036U 25161X   26195.90086819  .00013395  00000+0  46345-3 0  9994
2 65036  53.1607  63.5148 0001378  94.4440 265.6718 15.30208109 53704
STARLINK-1553
1 46348U 20062Z   26195.89865244  .00017833  00000+0  40212-3 0  9997
2 46348  53.0355  65.4846 0002808 152.8150 207.3002 15.43339164324890
STARLINK-31365
1 58973U 24031J   26195.89416411  .00000550  00000+0  27426-4 0  9993
2 58973  53.1618  65.4934 0001496 105.6219 254.4949 15.34387051136018
STARLINK-31449
1 58966U 24031B   26195.89190065  .00191605  00000+0  58631-2 0  9991
2 58966  53.1595  65.4857 0000478  84.9746 275.1311 15.32593636136010
STARLINK-32182
1 60319U 24133U   26195.95300411  .00003648  00000+0  11905-3 0  9997
2 60319  53.1605  65.3248 0001170  91.1248 268.9889 15.34400505111137
STARLINK-31369
1 58975U 24031L   26195.95088545  .00001983  00000+0  69868-4 0  9992
2 58975  53.1614  65.1413 0001568 106.8003 253.3172 15.34378162136007
STARLINK-36997
1 68248U 26054S   26195.94879610  .00012147  00000+0  37007-3 0  9996
2 68248  53.1600  65.2508 0001571  77.4338 282.6840 15.34399409 18485
STARLINK-31296
1 58879U 24020D   26195.90679285  .00048773  00000+0  14577-2 0  9998
2 58879  53.1609  65.5809 0001051  99.9229 260.1892 15.34130003137912
STARLINK-4026
1 52600U 22052C   26195.91670139 -.00016829  00000+0 -57208-3 0  9995
2 52600  53.1606  66.3156 0001049  82.3756 335.1259 15.29362482  5801
STARLINK-31229
1 58986U 24031X   26195.90469974 -.00002827  00000+0 -72596-4 0  9990
2 58986  53.1605  65.5658 0001181  62.3907 297.7215 15.34388491135997
STARLINK-31314
1 58967U 24031C   26195.90245876 -.00002696  00000+0 -78964-4 0  9991
2 58967  53.1609  65.5438 0001578  93.8845 266.2336 15.30178039136016
STARLINK-32199
1 60320U 24133V   26195.90259769 -.00000630  00000+0 -75181-5 0  9991
2 60320  53.1619  65.7129 0001371  96.2501 263.8658 15.34392000111124
STARLINK-31368
1 58970U 24031F   26195.90137900 -.00000299  00000+0  20444-5 0  9990
2 58970  53.1604  65.5494 0001402  83.9369 276.1792 15.30203044136015
STARLINK-3979
1 52608U 22052L   26195.89194605 -.00001248  00000+0 -60321-4 0  9999
2 52608  53.1601  67.8274 0001394  91.0345 269.0807 15.08826632230066
STARLINK-4002
1 52612U 22052Q   26195.88826665  .00000027  00000+0  19823-4 0  9994
2 52612  53.1599  67.8415 0001481  89.3843 270.7318 15.08832177230061
STARLINK-3181
1 51461U 22010F   26195.95082555  .00000084  00000+0  23380-4 0  9995
2 51461  53.1602  67.5599 0001472  95.3433 264.7726 15.08833292246038
STARLINK-3997
1 52609U 22052M   26195.88090155  .00001053  00000+0  84230-4 0  9991
2 52609  53.1600  67.8271 0001519  95.9203 264.1962 15.08833560230064
STARLINK-3182
1 51469U 22010P   26195.87722576  .00000245  00000+0  33509-4 0  9991
2 51469  53.1605  67.8942 0001184  95.0050 265.1077 15.08827298246028
STARLINK-3189
1 51464U 22010J   26195.87354812  .00000112  00000+0  25192-4 0  9992
2 51464  53.1606  67.9109 0002197 100.7361 259.3877 15.08830498246528
STARLINK-37669
1 69204U 26114Y   26195.91670139 -.00013779  00000+0 -39750-3 0  9999
2 69204  53.1601  69.4935 0000681  81.8297 248.8896 15.34395819  6026
STARLINK-37647
1 69207U 26114AB  26195.91991462  .00017036  00000+0  51406-3 0  9997
2 69207  53.1610  69.4419 0001392  70.6425 289.4728 15.34408819  9073
STARLINK-37671
1 69206U 26114AA  26195.91780892  .00008396  00000+0  25935-3 0  9996
2 69206  53.1599  69.4240 0001013  86.0067 274.1052 15.34401337  9072
STARLINK-37691
1 69205U 26114Z   26195.91670139 -.00016442  00000+0 -47648-3 0  9995
2 69205  53.1598  69.4132 0001360  79.7544 285.8495 15.34404099  5887
STARLINK-37562
1 69208U 26114AC  26195.91359519 -.00000853  00000+0 -14132-4 0  9996
2 69208  53.1608  69.4062 0000858  77.4420 282.6679 15.34383805  9089
STARLINK-37682
1 69209U 26114AD  26195.91149917  .00014486  00000+0  43904-3 0  9999
2 69209  53.1611  69.3809 0001429 101.1151 259.0012 15.34400403  9075
STARLINK-37237
1 69185U 26114D   26195.89686140  .00021816  00000+0  65487-3 0  9998
2 69185  53.1588  70.0326 0000985  68.8471 291.2637 15.34402726  9064
STARLINK-37365
1 69186U 26114E   26195.89475745  .00012509  00000+0  38066-3 0  9998
2 69186  53.1597  70.0166 0001199  87.3617 272.7523 15.34404971  9065
STARLINK-37209
1 69187U 26114F   26195.89264344  .00004711  00000+0  15056-3 0  9990
2 69187  53.1594  70.0022 0000678  13.6522 346.4498 15.34381023  9064
STARLINK-31373
1 58965U 24031A   26194.91418480  .00076683  00000+0  23482-2 0  9990
2 58965  53.1601  70.0481 0000529 274.0595  86.0347 15.33153786135862
STARLINK-37359
1 69188U 26114G   26195.91670139 -.00007393  00000+0 -20792-3 0  9991
2 69188  53.1584  69.8643 0001543  95.5285  49.0813 15.34390739  6075
STARLINK-37440
1 69189U 26114H   26195.95479132  .00011591  00000+0  34252-3 0  9995
2 69189  53.1601  69.6713 0001097  89.4727 270.6402 15.35414893  9077
STARLINK-4011
1 52615U 22052T   26195.91670139  .00015764  00000+0  69991-3 0  9998
2 52615  53.1591  71.7044 0001678  87.9217  43.7784 15.21733184  5793
STARLINK-4719
1 53774U 22111B   26195.91670139  .00018701  00000+0  96533-3 0  9997
2 53774  53.1601  72.3910 0002446 126.0029   9.4720 15.16370846  5808
STARLINK-5014
1 53926U 22119AS  26195.91670139 -.01175550  00000+0 -27648-1 0  9992
2 53926  53.2171  72.1585 0001875  63.3388  73.9215 15.44207983  5876
STARLINK-4718
1 53773U 22111A   26195.91670139  .00015405  00000+0  78882-3 0  9991
2 53773  53.1609  72.3592 0002080 127.8690  24.1395 15.16795449  5800
STARLINK-35151
1 65624U 25210C   26195.88693906  .00015761  00000+0  47702-3 0  9997
2 65624  53.1569  72.1363 0001145  97.7319 262.3813 15.34373836 47181
STARLINK-35202
1 65647U 25210AB  26195.94994577  .00001958  00000+0  69116-4 0  9994
2 65647  53.1594  71.8163 0001163  90.5942 269.5194 15.34380701 47271
STARLINK-35239
1 65623U 25210B   26195.95463567  .00011785  00000+0  35932-3 0  9996
2 65623  53.1587  73.2764 0001404  92.4453 267.6711 15.34405108 47257
STARLINK-35109
1 65642U 25210W   26195.95253050  .00011739  00000+0  35798-3 0  9990
2 65642  53.1583  73.2608 0001207 104.8736 255.2400 15.34404455 47256
STARLINK-35062
1 65643U 25210X   26195.95042910  .00018675  00000+0  56272-3 0  9998
2 65643  53.1579  73.2450 0001113  83.6784 276.4345 15.34386349 47254
STARLINK-31330
1 58951U 24027W   26195.94624125  .00004218  00000+0  13593-3 0  9997
2 58951  53.1609  73.4585 0001929 126.9293 233.1887 15.34394110136888
STARLINK-32727
1 62828U 25018Y   26195.94413736  .00014622  00000+0  44292-3 0  9990
2 62828  53.1589  73.4031 0001104 103.4573 256.6552 15.34409372 83679
STARLINK-4799
1 53860U 22114AU  26195.91670139  .00022859  00000+0  11671-2 0  9994
2 53860  53.1605  72.6312 0001170 104.4881 127.3088 15.16633958  5797
